SHIYAN-24C 02           
1 58651U 23206B   26068.89175597  .00002770  00000+0  23935-3 0  9991
2 58651  97.3985  41.8071 0003465  80.6641 279.4974 14.97980163120443
STARLINK-34007          
1 63868U 25094E   26068.85516420 -.00011983  00000+0 -99610-3 0  9995
2 63868  70.0017 234.2102 0004582 277.8261  82.2378 14.98405216 47229
